IRIDIUM 112             
1 41925U 17003J   24312.10123053  .00000662  00000+0  22929-3 0  9999
2 41925  86.3958 333.6545 0002138 103.5504 256.5930 14.34216621409129
IRIDIUM 111             
1 41926U 17003K   24312.57692400  .00000552  00000+0  19010-3 0  9993
2 41926  86.3958 333.5129 0002371  95.0390 265.1077 14.34212278409171
IRIDIUM 113             
1 42803U 17039A   24312.41735087  .00001138  00000+0  39923-3 0  9995
2 42803  86.4029 207.3391 0002108  93.2861 266.8576 14.34216672387085
IRIDIUM 123             
1 42804U 17039B   24312.52858155  .00000238  00000+0  77968-4 0  9992
2 42804  86.3991 238.7447 0002639  82.5977 277.5519 14.34216256385869
IRIDIUM 120             
1 42805U 17039C   24312.41102909  .00001488  00000+0  52426-3 0  9999
2 42805  86.4018 207.2006 0002092  75.3751 284.7676 14.34223341387078
IRIDIUM 115             
1 42806U 17039D   24312.44099974  .00001871  00000+0  55012-3 0  9990
2 42806  86.4552 207.2338 0002393  81.7852 278.3620 14.43292895389639
IRIDIUM 118             
1 42807U 17039E   24312.56031297  .00000577  00000+0  19898-3 0  9992
2 42807  86.3987 238.7323 0002062  84.7694 275.3737 14.34214033385869
IRIDIUM 117             
1 42808U 17039F   24312.23049311  .00000624  00000+0  21580-3 0  9997
2 42808  86.3985 238.8335 0002322  81.9598 278.1861 14.34220540385840
